{
  "type": "FeatureCollection",
  "features": [
    {
      "type": "Feature",
      "properties": {
        "norad_id": 33860,
        "name": "IRIDIUM 33 DEB",
        "group": "iridium-33-debris",
        "lat": 29.082915564205692,
        "lon": 32.793281423425555,
        "alt_km": 662.728030543527,
        "timestamp": "2025-12-04T17:48:40.549386+00:00",
        "meta_object_name": "IRIDIUM 33 DEB",
        "meta_object_id": "1997-051AD",
        "meta_epoch": "2025-12-04T04:51:22.821408",
        "meta_mean_motion": 14.67190836,
        "meta_eccentricity": 0.00085256,
        "meta_inclination": 86.3847,
        "meta_ra_of_asc_node": 31.0167,
        "meta_arg_of_pericenter": 26.0079,
        "meta_mean_anomaly": 33.9678,
        "meta_ephemeris_type": 0,
        "meta_classification_type": "U",
        "meta_norad_cat_id": 33860,
        "meta_element_set_no": 999,
        "meta_rev_at_epoch": 88597,
        "meta_bstar": 0.0030445761,
        "meta_mean_motion_dot": 0.00017185,
        "meta_mean_motion_ddot": 0,
        "tle_line1": "1 33860U 97051AD  25338.20234747  .00017185  00000+0  30446-2 0  9992",
        "tle_line2": "2 33860  86.3847  31.0167 0008525  26.0079  33.9678 14.67190836885978"
      },
      "geometry": {
        "type": "Point",
        "coordinates": [
          32.793281423425555,
          29.082915564205692
        ]
      }
    },
    {
      "type": "Feature",
      "properties": {
        "norad_id": 33862,
        "name": "IRIDIUM 33 DEB",
        "group": "iridium-33-debris",
        "lat": 3.7709713396499773,
        "lon": 41.29361471336241,
        "alt_km": 667.0247817647587,
        "timestamp": "2025-12-04T17:48:40.549397+00:00",
        "meta_object_name": "IRIDIUM 33 DEB",
        "meta_object_id": "1997-051AF",
        "meta_epoch": "2025-12-04T04:57:42.158016",
        "meta_mean_motion": 14.69253442,
        "meta_eccentricity": 0.00540042,
        "meta_inclination": 86.4101,
        "meta_ra_of_asc_node": 41.2924,
        "meta_arg_of_pericenter": 97.6475,
        "meta_mean_anomaly": 316.8072,
        "meta_ephemeris_type": 0,
        "meta_classification_type": "U",
        "meta_norad_cat_id": 33862,
        "meta_element_set_no": 999,
        "meta_rev_at_epoch": 88698,
        "meta_bstar": 0.0038146187,
        "meta_mean_motion_dot": 0.00023067,
        "meta_mean_motion_ddot": 0,
        "tle_line1": "1 33862U 97051AF  25338.20673794  .00023067  00000+0  38146-2 0  9994",
        "tle_line2": "2 33862  86.4101  41.2924 0054004  97.6475 316.8072 14.69253442886983"
      },
      "geometry": {
        "type": "Point",
        "coordinates": [
          41.29361471336241,
          3.7709713396499773
        ]
      }
    },
    {
      "type": "Feature",
      "properties": {
        "norad_id": 33866,
        "name": "IRIDIUM 33 DEB",
        "group": "iridium-33-debris",
        "lat": -78.83595726032414,
        "lon": -64.4398692529619,
        "alt_km": 789.8126233008052,
        "timestamp": "2025-12-04T17:48:40.549408+00:00",
        "meta_object_name": "IRIDIUM 33 DEB",
        "meta_object_id": "1997-051AK",
        "meta_epoch": "2025-12-04T02:15:41.512608",
        "meta_mean_motion": 14.25225857,
        "meta_eccentricity": 0.01137571,
        "meta_inclination": 86.2998,
        "meta_ra_of_asc_node": 96.6929,
        "meta_arg_of_pericenter": 188.9524,
        "meta_mean_anomaly": 347.038,
        "meta_ephemeris_type": 0,
        "meta_classification_type": "U",
        "meta_norad_cat_id": 33866,
        "meta_element_set_no": 999,
        "meta_rev_at_epoch": 86687,
        "meta_bstar": 0.0013814222,
        "meta_mean_motion_dot": 3.492e-05,
        "meta_mean_motion_ddot": 0,
        "tle_line1": "1 33866U 97051AK  25338.09423047  .00003492  00000+0  13814-2 0  9994",
        "tle_line2": "2 33866  86.2998  96.6929 0113757 188.9524 347.0380 14.25225857866873"
      },
      "geometry": {
        "type": "Point",
        "coordinates": [
          -64.4398692529619,
          -78.83595726032414
        ]
      }
    },
    {
      "type": "Feature",
      "properties": {
        "norad_id": 33867,
        "name": "IRIDIUM 33 DEB",
        "group": "iridium-33-debris",
        "lat": -14.671706214031719,
        "lon": -6.732923411701294,
        "alt_km": 408.1285542013575,
        "timestamp": "2025-12-04T17:48:40.549420+00:00",
        "meta_object_name": "IRIDIUM 33 DEB",
        "meta_object_id": "1997-051AL",
        "meta_epoch": "2025-12-04T00:53:10.204224",
        "meta_mean_motion": 15.54633493,
        "meta_eccentricity": 0.00123891,
        "meta_inclination": 86.3627,
        "meta_ra_of_asc_node": 354.5807,
        "meta_arg_of_pericenter": 97.6739,
        "meta_mean_anomaly": 262.5931,
        "meta_ephemeris_type": 0,
        "meta_classification_type": "U",
        "meta_norad_cat_id": 33867,
        "meta_element_set_no": 999,
        "meta_rev_at_epoch": 89375,
        "meta_bstar": 0.010164075,
        "meta_mean_motion_dot": 0.00736718,
        "meta_mean_motion_ddot": 0,
        "tle_line1": "1 33867U 97051AL  25338.03692366  .00736718  00000+0  10164-1 0  9999",
        "tle_line2": "2 33867  86.3627 354.5807 0012389  97.6739 262.5931 15.54633493893750"
      },
      "geometry": {
        "type": "Point",
        "coordinates": [
          -6.732923411701294,
          -14.671706214031719
        ]
      }
    },
    {
      "type": "Feature",
      "properties": {
        "norad_id": 33870,
        "name": "IRIDIUM 33 DEB",
        "group": "iridium-33-debris",
        "lat": 54.230936557772004,
        "lon": -123.35850053125674,
        "alt_km": 731.6187599865207,
        "timestamp": "2025-12-04T17:48:40.549431+00:00",
        "meta_object_name": "IRIDIUM 33 DEB",
        "meta_object_id": "1997-051AP",
        "meta_epoch": "2025-12-04T05:51:01.645056",
        "meta_mean_motion": 14.45776781,
        "meta_eccentricity": 0.00205582,
        "meta_inclination": 86.3758,
        "meta_ra_of_asc_node": 61.9023,
        "meta_arg_of_pericenter": 206.2937,
        "meta_mean_anomaly": 207.2345,
        "meta_ephemeris_type": 0,
        "meta_classification_type": "U",
        "meta_norad_cat_id": 33870,
        "meta_element_set_no": 999,
        "meta_rev_at_epoch": 88014,
        "meta_bstar": 0.0019702022,
        "meta_mean_motion_dot": 7.022e-05,
        "meta_mean_motion_ddot": 0,
        "tle_line1": "1 33870U 97051AP  25338.24376904  .00007022  00000+0  19702-2 0  9990",
        "tle_line2": "2 33870  86.3758  61.9023 0020558 206.2937 207.2345 14.45776781880144"
      },
      "geometry": {
        "type": "Point",
        "coordinates": [
          -123.35850053125674,
          54.230936557772004
        ]
      }
    },
    {
      "type": "Feature",
      "properties": {
        "norad_id": 33881,
        "name": "IRIDIUM 33 DEB",
        "group": "iridium-33-debris",
        "lat": 47.51717557099639,
        "lon": 114.17277921383436,
        "alt_km": 739.3907831332899,
        "timestamp": "2025-12-04T17:48:40.549441+00:00",
        "meta_object_name": "IRIDIUM 33 DEB",
        "meta_object_id": "1997-051BA",
        "meta_epoch": "2025-12-03T08:52:49.327968",
        "meta_mean_motion": 14.56290168,
        "meta_eccentricity": 0.0061157,
        "meta_inclination": 86.3865,
        "meta_ra_of_asc_node": 110.812,
        "meta_arg_of_pericenter": 205.0667,
        "meta_mean_anomaly": 213.9917,
        "meta_ephemeris_type": 0,
        "meta_classification_type": "U",
        "meta_norad_cat_id": 33881,
        "meta_element_set_no": 999,
        "meta_rev_at_epoch": 87364,
        "meta_bstar": 0.002603,
        "meta_mean_motion_dot": 0.00011848,
        "meta_mean_motion_ddot": 0,
        "tle_line1": "1 33881U 97051BA  25337.37001537  .00011848  00000+0  26030-2 0  9995",
        "tle_line2": "2 33881  86.3865 110.8120 0061157 205.0667 213.9917 14.56290168873642"
      },
      "geometry": {
        "type": "Point",
        "coordinates": [
          114.17277921383436,
          47.51717557099639
        ]
      }
    },
    {
      "type": "Feature",
      "properties": {
        "norad_id": 33884,
        "name": "IRIDIUM 33 DEB",
        "group": "iridium-33-debris",
        "lat": 64.30376044139004,
        "lon": -174.1531267613753,
        "alt_km": 635.9672417996162,
        "timestamp": "2025-12-04T17:48:40.549452+00:00",
        "meta_object_name": "IRIDIUM 33 DEB",
        "meta_object_id": "1997-051BD",
        "meta_epoch": "2025-12-04T02:54:00.284832",
        "meta_mean_motion": 14.77168398,
        "meta_eccentricity": 0.00106133,
        "meta_inclination": 86.3697,
        "meta_ra_of_asc_node": 13.7089,
        "meta_arg_of_pericenter": 355.5376,
        "meta_mean_anomaly": 57.9595,
        "meta_ephemeris_type": 0,
        "meta_classification_type": "U",
        "meta_norad_cat_id": 33884,
        "meta_element_set_no": 999,
        "meta_rev_at_epoch": 88720,
        "meta_bstar": 0.0029953103,
        "meta_mean_motion_dot": 0.00021274,
        "meta_mean_motion_ddot": 0,
        "tle_line1": "1 33884U 97051BD  25338.12083663  .00021274  00000+0  29953-2 0  9993",
        "tle_line2": "2 33884  86.3697  13.7089 0010613 355.5376  57.9595 14.77168398887209"
      },
      "geometry": {
        "type": "Point",
        "coordinates": [
          -174.1531267613753,
          64.30376044139004
        ]
      }
    }
  ]
}